ONEWEB-0199             
1 48234U 21031AA  24153.53551612  .00000087  00000+0  19947-3 0  9998
2 48234  87.8967  78.0492 0001970  76.0419 284.0930 13.14501289150301
ONEWEB-0203             
1 48235U 21031AB  24153.52599721 -.00000078  00000+0 -24374-3 0  9993
2 48235  87.8966  78.0524 0002433  87.8815 272.2593 13.14501951150313
ONEWEB-0197             
1 48236U 21031AC  24153.19694747 -.00000119  00000+0 -35525-3 0  9997
2 48236  87.8970  78.1264 0001648  80.8764 279.2552 13.14500981150183
ONEWEB-0194             
1 48237U 21031AD  24153.48001651  .00000192  00000+0  48247-3 0  9990
2 48237  87.8970  78.0630 0002157  86.6618 273.4758 13.14500957150398
ONEWEB-0193             
1 48238U 21031AE  24152.81080602 -.00000113  00000+0 -33943-3 0  9992
2 48238  87.8971  78.2044 0002163  79.0548 281.0825 13.14501257150255
ONEWEB-0191             
1 48239U 21031AF  24153.50696902 -.00000166  00000+0 -48176-3 0  9998
2 48239  87.8967  78.0496 0002114  79.0409 281.0958 13.14501293150204
ONEWEB-0195             
1 48240U 21031AG  24152.79891403  .00000114  00000+0  27287-3 0  9994
2 48240  87.8967  78.1902 0002303  70.0502 290.0875 13.14501282150097
ONEWEB-0201             
1 48241U 21031AH  24152.86393008  .00000201  00000+0  50780-3 0  9992
2 48241  87.8970  78.2113 0002070  75.4426 284.6933 13.14500739150339
